{"type": "FeatureCollection", "features": [ {"type": "Feature", "properties": {"norad_id": 37441, "name": "FENGYUN 1C DEB", "group": "fengyun-1c-debris", "lat": 42.103303509928395, "lon": 33.93122339329923, "alt_km": 1351.2585732532807, "timestamp": "2025-12-26T12:57:39.562054+00:00", "meta": {"OBJECT_NAME": "FENGYUN 1C DEB", "OBJECT_ID": "1999-025EHK", "EPOCH": "2025-12-20T19:16:48.855936", "MEAN_MOTION": 13.14245477, "ECCENTRICITY": 0.05088557, "INCLINATION": 99.146, "RA_OF_ASC_NODE": 200.5877, "ARG_OF_PERICENTER": 35.6, "MEAN_ANOMALY": 327.7968, "EPHEMERIS_TYPE": 0, "CLASSIFICATION_TYPE": "U", "NORAD_CAT_ID": 37441, "ELEMENT_SET_NO": 999, "REV_AT_EPOCH": 82278, "BSTAR": 0.001561327, "MEAN_MOTION_DOT": 1.077e-05, "MEAN_MOTION_DDOT": 0}, "tle": {"line1": "1 37441U 99025EHK 25354.80334324  .00001077  00000+0  15613-2 0  9992", "line2": "2 37441  99.1460 200.5877 0508855  35.6000 327.7968 13.14245477822781"}}, "geometry": {"type": "Point", "coordinates": [33.93122339329923, 42.103303509928395]}}, {"type": "Feature", "properties": {"norad_id": 37444, "name": "FENGYUN 1C DEB", "group": "fengyun-1c-debris", "lat": 59.3095402060479, "lon": -82.26564067381952, "alt_km": 897.7947901185635, "timestamp": "2025-12-26T12:57:39.562065+00:00", "meta": {"OBJECT_NAME": "FENGYUN 1C DEB", "OBJECT_ID": "1999-025EHN", "EPOCH": "2025-12-24T12:18:50.565600", "MEAN_MOTION": 14.4810047, "ECCENTRICITY": 0.02443082, "INCLINATION": 99.0816, "RA_OF_ASC_NODE": 79.9217, "ARG_OF_PERICENTER": 313.8235, "MEAN_ANOMALY": 44.2984, "EPHEMERIS_TYPE": 0, "CLASSIFICATION_TYPE": "U", "NORAD_CAT_ID": 37444, "ELEMENT_SET_NO": 999, "REV_AT_EPOCH": 65321, "BSTAR": 0.00064075579, "MEAN_MOTION_DOT": 3.413e-05, "MEAN_MOTION_DDOT": 0}, "tle": {"line1": "1 37444U 99025EHN 25358.51308525  .00003413  00000+0  64076-3 0  9995", "line2": "2 37444  99.0816  79.9217 0244308 313.8235  44.2984 14.48100470653215"}}, "geometry": {"type": "Point", "coordinates": [-82.26564067381952, 59.3095402060479]}}, {"type": "Feature", "properties": {"norad_id": 37448, "name": "FENGYUN 1C DEB", "group": "fengyun-1c-debris", "lat": -28.58613383180819, "lon": -120.00596816624551, "alt_km": 1166.311893039524, "timestamp": "2025-12-26T12:57:39.562074+00:00", "meta": {"OBJECT_NAME": "FENGYUN 1C DEB", "OBJECT_ID": "1999-025EHS", "EPOCH": "2025-12-24T23:36:31.084704", "MEAN_MOTION": 13.87133136, "ECCENTRICITY": 0.03058489, "INCLINATION": 99.3189, "RA_OF_ASC_NODE": 63.5736, "ARG_OF_PERICENTER": 25.7906, "MEAN_ANOMALY": 335.8146, "EPHEMERIS_TYPE": 0, "CLASSIFICATION_TYPE": "U", "NORAD_CAT_ID": 37448, "ELEMENT_SET_NO": 999, "REV_AT_EPOCH": 62545, "BSTAR": 0.0013820441, "MEAN_MOTION_DOT": 2.303e-05, "MEAN_MOTION_DDOT": 0}, "tle": {"line1": "1 37448U 99025EHS 25358.98369311  .00002303  00000+0  13820-2 0  9997", "line2": "2 37448  99.3189  63.5736 0305848  25.7906 335.8146 13.87133136625452"}}, "geometry": {"type": "Point", "coordinates": [-120.00596816624551, -28.58613383180819]}}, {"type": "Feature", "properties": {"norad_id": 37460, "name": "FENGYUN 1C DEB", "group": "fengyun-1c-debris", "lat": -81.3653906080091, "lon": -79.74859032401125, "alt_km": 701.0037198629279, "timestamp": "2025-12-26T12:57:39.562085+00:00", "meta": {"OBJECT_NAME": "FENGYUN 1C DEB", "OBJECT_ID": "1999-025EJE", "EPOCH": "2025-12-08T10:53:05.307360", "MEAN_MOTION": 14.47840336, "ECCENTRICITY": 0.00565903, "INCLINATION": 98.3779, "RA_OF_ASC_NODE": 158.3686, "ARG_OF_PERICENTER": 303.3518, "MEAN_ANOMALY": 56.2265, "EPHEMERIS_TYPE": 0, "CLASSIFICATION_TYPE": "U", "NORAD_CAT_ID": 37460, "ELEMENT_SET_NO": 999, "REV_AT_EPOCH": 82427, "BSTAR": 0.0027403859, "MEAN_MOTION_DOT": 0.00010316, "MEAN_MOTION_DDOT": 0}, "tle": {"line1": "1 37460U 99025EJE 25342.45353365  .00010316  00000+0  27404-2 0  9994", "line2": "2 37460  98.3779 158.3686 0056590 303.3518  56.2265 14.47840336824279"}}, "geometry": {"type": "Point", "coordinates": [-79.74859032401125, -81.3653906080091]}}, {"type": "Feature", "properties": {"norad_id": 37461, "name": "FENGYUN 1C DEB", "group": "fengyun-1c-debris", "lat": -75.82426802991901, "lon": 23.54298662254746, "alt_km": 929.9821453567092, "timestamp": "2025-12-26T12:57:39.562095+00:00", "meta": {"OBJECT_NAME": "FENGYUN 1C DEB", "OBJECT_ID": "1999-025EJF", "EPOCH": "2025-11-27T22:25:56.122176", "MEAN_MOTION": 12.7907076, "ECCENTRICITY": 0.0667413, "INCLINATION": 99.8664, "RA_OF_ASC_NODE": 221.8984, "ARG_OF_PERICENTER": 359.7811, "MEAN_ANOMALY": 0.291, "EPHEMERIS_TYPE": 0, "CLASSIFICATION_TYPE": "U", "NORAD_CAT_ID": 37461, "ELEMENT_SET_NO": 999, "REV_AT_EPOCH": 51845, "BSTAR": 0.0053613, "MEAN_MOTION_DOT": 3.048e-05, "MEAN_MOTION_DDOT": 0}, "tle": {"line1": "1 37461U 99025EJF 25331.93467734  .00003048  00000+0  53613-2 0  9997", "line2": "2 37461  99.8664 221.8984 0667413 359.7811   0.2910 12.79070760518454"}}, "geometry": {"type": "Point", "coordinates": [23.54298662254746, -75.82426802991901]}}, {"type": "Feature", "properties": {"norad_id": 37464, "name": "FENGYUN 1C DEB", "group": "fengyun-1c-debris", "lat": 38.60511487720288, "lon": 118.7370151899209, "alt_km": 867.5880436173557, "timestamp": "2025-12-26T12:57:39.562106+00:00", "meta": {"OBJECT_NAME": "FENGYUN 1C DEB", "OBJECT_ID": "1999-025EJJ", "EPOCH": "2025-12-23T13:00:39.857472", "MEAN_MOTION": 13.46973287, "ECCENTRICITY": 0.04540964, "INCLINATION": 102.7123, "RA_OF_ASC_NODE": 284.5476, "ARG_OF_PERICENTER": 93.5176, "MEAN_ANOMALY": 271.7979, "EPHEMERIS_TYPE": 0, "CLASSIFICATION_TYPE": "U", "NORAD_CAT_ID": 37464, "ELEMENT_SET_NO": 999, "REV_AT_EPOCH": 61067, "BSTAR": 0.0034710051, "MEAN_MOTION_DOT": 3.896e-05, "MEAN_MOTION_DDOT": 0}, "tle": {"line1": "1 37464U 99025EJJ 25357.54212798  .00003896  00000+0  34710-2 0  9991", "line2": "2 37464 102.7123 284.5476 0454096  93.5176 271.7979 13.46973287610679"}}, "geometry": {"type": "Point", "coordinates": [118.7370151899209, 38.60511487720288]}}, {"type": "Feature", "properties": {"norad_id": 37470, "name": "FENGYUN 1C DEB", "group": "fengyun-1c-debris", "lat": -81.31910435977888, "lon": -126.45559991933963, "alt_km": 563.4785196326202, "timestamp": "2025-12-26T12:57:39.562116+00:00", "meta": {"OBJECT_NAME": "FENGYUN 1C DEB", "OBJECT_ID": "1999-025EJQ", "EPOCH": "2025-12-24T05:26:11.905152", "MEAN_MOTION": 15.02795725, "ECCENTRICITY": 0.00021596, "INCLINATION": 98.6697, "RA_OF_ASC_NODE": 142.9802, "ARG_OF_PERICENTER": 329.9588, "MEAN_ANOMALY": 30.151, "EPHEMERIS_TYPE": 0, "CLASSIFICATION_TYPE": "U", "NORAD_CAT_ID": 37470, "ELEMENT_SET_NO": 999, "REV_AT_EPOCH": 65634, "BSTAR": 0.0060640232, "MEAN_MOTION_DOT": 0.00081995, "MEAN_MOTION_DDOT": 0}, "tle": {"line1": "1 37470U 99025EJQ 25358.22652668  .00081995  00000+0  60640-2 0  9995", "line2": "2 37470  98.6697 142.9802 0002159 329.9588  30.1510 15.02795725656342"}}, "geometry": {"type": "Point", "coordinates": [-126.45559991933963, -81.31910435977888]}}, {"type": "Feature", "properties": {"norad_id": 37474, "name": "FENGYUN 1C DEB", "group": "fengyun-1c-debris", "lat": -39.741232577215335, "lon": -144.76682537715527, "alt_km": 712.2991219251753, "timestamp": "2025-12-26T12:57:39.562127+00:00", "meta": {"OBJECT_NAME": "FENGYUN 1C DEB", "OBJECT_ID": "1999-025EJU", "EPOCH": "2025-12-24T20:27:11.751840", "MEAN_MOTION": 14.75336931, "ECCENTRICITY": 0.013197, "INCLINATION": 99.1656, "RA_OF_ASC_NODE": 205.6078, "ARG_OF_PERICENTER": 97.4054, "MEAN_ANOMALY": 264.2169, "EPHEMERIS_TYPE": 0, "CLASSIFICATION_TYPE": "U", "NORAD_CAT_ID": 37474, "ELEMENT_SET_NO": 999, "REV_AT_EPOCH": 62554, "BSTAR": 0.0012519274, "MEAN_MOTION_DOT": 9.722e-05, "MEAN_MOTION_DDOT": 0}, "tle": {"line1": "1 37474U 99025EJU 25358.85221935  .00009722  00000+0  12519-2 0  9997", "line2": "2 37474  99.1656 205.6078 0131970  97.4054 264.2169 14.75336931625545"}}, "geometry": {"type": "Point", "coordinates": [-144.76682537715527, -39.741232577215335]}}, {"type": "Feature", "properties": {"norad_id": 37477, "name": "FENGYUN 1C DEB", "group": "fengyun-1c-debris", "lat": -53.07175790041745, "lon": 16.44538910260813, "alt_km": 846.6253629839675, "timestamp": "2025-12-26T12:57:39.562137+00:00", "meta": {"OBJECT_NAME": "FENGYUN 1C DEB", "OBJECT_ID": "1999-025EJX", "EPOCH": "2025-12-16T18:06:36.022176", "MEAN_MOTION": 14.19731482, "ECCENTRICITY": 0.00371355, "INCLINATION": 98.6057, "RA_OF_ASC_NODE": 355.3103, "ARG_OF_PERICENTER": 94.8392, "MEAN_ANOMALY": 265.7026, "EPHEMERIS_TYPE": 0, "CLASSIFICATION_TYPE": "U", "NORAD_CAT_ID": 37477, "ELEMENT_SET_NO": 999, "REV_AT_EPOCH": 81971, "BSTAR": 0.00055952668, "MEAN_MOTION_DOT": 1.15e-05, "MEAN_MOTION_DDOT": 0}, "tle": {"line1": "1 37477U 99025EJX 25350.75458359  .00001150  00000+0  55953-3 0  9990", "line2": "2 37477  98.6057 355.3103 0037135  94.8392 265.7026 14.19731482819713"}}, "geometry": {"type": "Point", "coordinates": [16.44538910260813, -53.07175790041745]}}, {"type": "Feature", "properties": {"norad_id": 37478, "name": "FENGYUN 1C DEB", "group": "fengyun-1c-debris", "lat": 38.26786762449562, "lon": -26.1357450327859, "alt_km": 1380.1542433238747, "timestamp": "2025-12-26T12:57:39.562147+00:00", "meta": {"OBJECT_NAME": "FENGYUN 1C DEB", "OBJECT_ID": "1999-025EJY", "EPOCH": "2025-12-23T05:31:28.594848", "MEAN_MOTION": 13.03020761, "ECCENTRICITY": 0.05479168, "INCLINATION": 99.6522, "RA_OF_ASC_NODE": 338.6097, "ARG_OF_PERICENTER": 295.1195, "MEAN_ANOMALY": 59.4029, "EPHEMERIS_TYPE": 0, "CLASSIFICATION_TYPE": "U", "NORAD_CAT_ID": 37478, "ELEMENT_SET_NO": 999, "REV_AT_EPOCH": 56698, "BSTAR": 0.0032489988, "MEAN_MOTION_DOT": 2.046e-05, "MEAN_MOTION_DDOT": 0}, "tle": {"line1": "1 37478U 99025EJY 25357.23019207  .00002046  00000+0  32490-2 0  9991", "line2": "2 37478  99.6522 338.6097 0547916 295.1195  59.4029 13.03020761566980"}}, "geometry": {"type": "Point", "coordinates": [-26.1357450327859, 38.26786762449562]}}]}